[{"OBJECT_NAME":"ONEWEB-0116","OBJECT_ID":"2021-025E","EPOCH":"2026-05-21T00:10:38.481312","MEAN_MOTION":13.13471811,"ECCENTRICITY":0.0001881,"INCLINATION":87.8946,"RA_OF_ASC_NODE":325.6306,"ARG_OF_PERICENTER":87.1041,"MEAN_ANOMALY":273.0304,"EPHEMERIS_TYPE":0,"CLASSIFICATION_TYPE":"U","NORAD_CAT_ID":48046,"ELEMENT_SET_NO":999,"REV_AT_EPOCH":25008,"BSTAR":-0.0006455100000000001,"MEAN_MOTION_DOT":-2.23e-06,"MEAN_MOTION_DDOT":0.0},{"OBJECT_NAME":"ONEWEB-0150","OBJECT_ID":"2021-025F","EPOCH":"2026-05-21T01:26:12.615936","MEAN_MOTION":13.13470867,"ECCENTRICITY":0.0001916,"INCLINATION":87.8948,"RA_OF_ASC_NODE":325.6179,"ARG_OF_PERICENTER":95.4756,"MEAN_ANOMALY":264.6592,"EPHEMERIS_TYPE":0,"CLASSIFICATION_TYPE":"U","NORAD_CAT_ID":48047,"ELEMENT_SET_NO":999,"REV_AT_EPOCH":24998,"BSTAR":-0.0001246,"MEAN_MOTION_DOT":-3.3e-07,"MEAN_MOTION_DDOT":0.0},{"OBJECT_NAME":"ONEWEB-0107","OBJECT_ID":"2021-025G","EPOCH":"2026-05-21T05:08:02.018400","MEAN_MOTION":13.13468266,"ECCENTRICITY":0.0001631,"INCLINATION":87.8949,"RA_OF_ASC_NODE":325.5827,"ARG_OF_PERICENTER":97.6951,"MEAN_ANOMALY":262.4364,"EPHEMERIS_TYPE":0,"CLASSIFICATION_TYPE":"U","NORAD_CAT_ID":48048,"ELEMENT_SET_NO":999,"REV_AT_EPOCH":24998,"BSTAR":-0.00018335,"MEAN_MOTION_DOT":-5.4e-07,"MEAN_MOTION_DDOT":0.0},{"OBJECT_NAME":"ONEWEB-0101","OBJECT_ID":"2021-025H","EPOCH":"2026-05-21T06:04:06.795552","MEAN_MOTION":13.13469232,"ECCENTRICITY":0.0001654,"INCLINATION":87.8937,"RA_OF_ASC_NODE":325.5932,"ARG_OF_PERICENTER":90.924,"MEAN_ANOMALY":269.2079,"EPHEMERIS_TYPE":0,"CLASSIFICATION_TYPE":"U","NORAD_CAT_ID":48049,"ELEMENT_SET_NO":999,"REV_AT_EPOCH":24996,"BSTAR":0.00021217,"MEAN_MOTION_DOT":9e-07,"MEAN_MOTION_DDOT":0.0},{"OBJECT_NAME":"ONEWEB-0113","OBJECT_ID":"2021-025J","EPOCH":"2026-05-21T05:02:03.379776","MEAN_MOTION":13.13895235,"ECCENTRICITY":0.0001853,"INCLINATION":87.8946,"RA_OF_ASC_NODE":325.5147,"ARG_OF_PERICENTER":90.9771,"MEAN_ANOMALY":269.157,"EPHEMERIS_TYPE":0,"CLASSIFICATION_TYPE":"U","NORAD_CAT_ID":48050,"ELEMENT_SET_NO":999,"REV_AT_EPOCH":25006,"BSTAR":0.00014765,"MEAN_MOTION_DOT":6.7e-07,"MEAN_MOTION_DDOT":0.0},{"OBJECT_NAME":"ONEWEB-0112","OBJECT_ID":"2021-025K","EPOCH":"2026-05-21T05:15:21.296736","MEAN_MOTION":13.13471223,"ECCENTRICITY":0.000152,"INCLINATION":87.895,"RA_OF_ASC_NODE":325.5795,"ARG_OF_PERICENTER":90.5328,"MEAN_ANOMALY":269.5975,"EPHEMERIS_TYPE":0,"CLASSIFICATION_TYPE":"U","NORAD_CAT_ID":48051,"ELEMENT_SET_NO":999,"REV_AT_EPOCH":25005,"BSTAR":-0.00037943,"MEAN_MOTION_DOT":-1.26e-06,"MEAN_MOTION_DDOT":0.0},{"OBJECT_NAME":"ONEWEB-0156","OBJECT_ID":"2021-025L","EPOCH":"2026-05-21T05:27:32.079168","MEAN_MOTION":13.13471332,"ECCENTRICITY":0.0001753,"INCLINATION":87.895,"RA_OF_ASC_NODE":325.588,"ARG_OF_PERICENTER":95.0597,"MEAN_ANOMALY":265.0732,"EPHEMERIS_TYPE":0,"CLASSIFICATION_TYPE":"U","NORAD_CAT_ID":48052,"ELEMENT_SET_NO":999,"REV_AT_EPOCH":25003,"BSTAR":-0.0007607699999999999,"MEAN_MOTION_DOT":-2.65e-06,"MEAN_MOTION_DDOT":0.0},{"OBJECT_NAME":"ONEWEB-0161","OBJECT_ID":"2021-025M","EPOCH":"2026-05-21T06:40:40.631520","MEAN_MOTION":13.13468195,"ECCENTRICITY":0.0001735,"INCLINATION":87.8939,"RA_OF_ASC_NODE":325.5807,"ARG_OF_PERICENTER":96.3587,"MEAN_ANOMALY":263.7739,"EPHEMERIS_TYPE":0,"CLASSIFICATION_TYPE":"U","NORAD_CAT_ID":48053,"ELEMENT_SET_NO":999,"REV_AT_EPOCH":24997,"BSTAR":0.00055816,"MEAN_MOTION_DOT":2.17e-06,"MEAN_MOTION_DDOT":0.0},{"OBJECT_NAME":"ONEWEB-0158","OBJECT_ID":"2021-025N","EPOCH":"2026-05-21T00:13:03.856224","MEAN_MOTION":13.13469851,"ECCENTRICITY":0.0001828,"INCLINATION":87.8948,"RA_OF_ASC_NODE":325.6306,"ARG_OF_PERICENTER":80.6738,"MEAN_ANOMALY":279.4598,"EPHEMERIS_TYPE":0,"CLASSIFICATION_TYPE":"U","NORAD_CAT_ID":48054,"ELEMENT_SET_NO":999,"REV_AT_EPOCH":25006,"BSTAR":-0.0011708,"MEAN_MOTION_DOT":-4.15e-06,"MEAN_MOTION_DDOT":0.0},{"OBJECT_NAME":"ONEWEB-0157","OBJECT_ID":"2021-025P","EPOCH":"2026-05-21T00:49:39.129024","MEAN_MOTION":13.13468732,"ECCENTRICITY":0.0001566,"INCLINATION":87.8949,"RA_OF_ASC_NODE":325.6309,"ARG_OF_PERICENTER":101.5824,"MEAN_ANOMALY":258.5482,"EPHEMERIS_TYPE":0,"CLASSIFICATION_TYPE":"U","NORAD_CAT_ID":48055,"ELEMENT_SET_NO":999,"REV_AT_EPOCH":25000,"BSTAR":0.00072685,"MEAN_MOTION_DOT":2.78e-06,"MEAN_MOTION_DDOT":0.0},{"OBJECT_NAME":"ONEWEB-0162","OBJECT_ID":"2021-025Q","EPOCH":"2026-05-21T05:44:23.657280","MEAN_MOTION":13.13468747,"ECCENTRICITY":0.0001921,"INCLINATION":87.8944,"RA_OF_ASC_NODE":325.592,"ARG_OF_PERICENTER":94.8754,"MEAN_ANOMALY":265.2595,"EPHEMERIS_TYPE":0,"CLASSIFICATION_TYPE":"U","NORAD_CAT_ID":48056,"ELEMENT_SET_NO":999,"REV_AT_EPOCH":25000,"BSTAR":-0.00097602,"MEAN_MOTION_DOT":-3.44e-06,"MEAN_MOTION_DDOT":0.0},{"OBJECT_NAME":"ONEWEB-0155","OBJECT_ID":"2021-025R","EPOCH":"2026-05-21T05:54:20.506752","MEAN_MOTION":13.1346999,"ECCENTRICITY":0.00016,"INCLINATION":87.8942,"RA_OF_ASC_NODE":325.5867,"ARG_OF_PERICENTER":91.3305,"MEAN_ANOMALY":268.8008,"EPHEMERIS_TYPE":0,"CLASSIFICATION_TYPE":"U","NORAD_CAT_ID":48057,"ELEMENT_SET_NO":999,"REV_AT_EPOCH":25014,"BSTAR":-0.00085304,"MEAN_MOTION_DOT":-2.99e-06,"MEAN_MOTION_DDOT":0.0},{"OBJECT_NAME":"ONEWEB-0149","OBJECT_ID":"2021-025S","EPOCH":"2026-05-21T00:56:58.125696","MEAN_MOTION":13.1347097,"ECCENTRICITY":0.0001953,"INCLINATION":87.895,"RA_OF_ASC_NODE":325.6303,"ARG_OF_PERICENTER":95.9941,"MEAN_ANOMALY":264.141,"EPHEMERIS_TYPE":0,"CLASSIFICATION_TYPE":"U","NORAD_CAT_ID":48058,"ELEMENT_SET_NO":999,"REV_AT_EPOCH":24992,"BSTAR":0.00070541,"MEAN_MOTION_DOT":2.7e-06,"MEAN_MOTION_DDOT":0.0},{"OBJECT_NAME":"ONEWEB-0148","OBJECT_ID":"2021-025T","EPOCH":"2026-05-21T05:32:24.302112","MEAN_MOTION":13.13468643,"ECCENTRICITY":0.0002151,"INCLINATION":87.8943,"RA_OF_ASC_NODE":325.6008,"ARG_OF_PERICENTER":104.8983,"MEAN_ANOMALY":255.2384,"EPHEMERIS_TYPE":0,"CLASSIFICATION_TYPE":"U","NORAD_CAT_ID":48059,"ELEMENT_SET_NO":999,"REV_AT_EPOCH":25007,"BSTAR":-0.0008614699999999999,"MEAN_MOTION_DOT":-3.02e-06,"MEAN_MOTION_DDOT":0.0},{"OBJECT_NAME":"ONEWEB-0160","OBJECT_ID":"2021-025U","EPOCH":"2026-05-21T05:56:48.304320","MEAN_MOTION":13.13471448,"ECCENTRICITY":0.0002283,"INCLINATION":87.8941,"RA_OF_ASC_NODE":325.5938,"ARG_OF_PERICENTER":74.9663,"MEAN_ANOMALY":285.1719,"EPHEMERIS_TYPE":0,"CLASSIFICATION_TYPE":"U","NORAD_CAT_ID":48060,"ELEMENT_SET_NO":999,"REV_AT_EPOCH":25002,"BSTAR":-0.00032729000000000005,"MEAN_MOTION_DOT":-1.07e-06,"MEAN_MOTION_DDOT":0.0},{"OBJECT_NAME":"ONEWEB-0163","OBJECT_ID":"2021-025V","EPOCH":"2026-05-21T05:34:51.280608","MEAN_MOTION":13.13468741,"ECCENTRICITY":0.0001575,"INCLINATION":87.8943,"RA_OF_ASC_NODE":325.5898,"ARG_OF_PERICENTER":97.8564,"MEAN_ANOMALY":262.2744,"EPHEMERIS_TYPE":0,"CLASSIFICATION_TYPE":"U","NORAD_CAT_ID":48061,"ELEMENT_SET_NO":999,"REV_AT_EPOCH":25014,"BSTAR":-0.0010465000000000001,"MEAN_MOTION_DOT":-3.69e-06,"MEAN_MOTION_DDOT":0.0}]