ONEWEB-0116             
1 48046U 21025E   26141.00738983 -.00000223  00000+0 -64551-3 0  9996
2 48046  87.8946 325.6306 0001881  87.1041 273.0304 13.13471811250084
ONEWEB-0150             
1 48047U 21025F   26141.05986824 -.00000033  00000+0 -12460-3 0  9992
2 48047  87.8948 325.6179 0001916  95.4756 264.6592 13.13470867249981
ONEWEB-0107             
1 48048U 21025G   26141.21391225 -.00000054  00000+0 -18335-3 0  9996
2 48048  87.8949 325.5827 0001631  97.6951 262.4364 13.13468266249980
ONEWEB-0101             
1 48049U 21025H   26141.25285643  .00000090  00000+0  21217-3 0  9998
2 48049  87.8937 325.5932 0001654  90.9240 269.2079 13.13469232249967
ONEWEB-0113             
1 48050U 21025J   26141.20976134  .00000067  00000+0  14765-3 0  9991
2 48050  87.8946 325.5147 0001853  90.9771 269.1570 13.13895235250061
ONEWEB-0112             
1 48051U 21025K   26141.21899649 -.00000126  00000+0 -37943-3 0  9999
2 48051  87.8950 325.5795 0001520  90.5328 269.5975 13.13471223250050
ONEWEB-0156             
1 48052U 21025L   26141.22745462 -.00000265  00000+0 -76077-3 0  9999
2 48052  87.8950 325.5880 0001753  95.0597 265.0732 13.13471332250033
ONEWEB-0161             
1 48053U 21025M   26141.27824805  .00000217  00000+0  55816-3 0  9997
2 48053  87.8939 325.5807 0001735  96.3587 263.7739 13.13468195249979
ONEWEB-0158             
1 48054U 21025N   26141.00907241 -.00000415  00000+0 -11708-2 0  9998
2 48054  87.8948 325.6306 0001828  80.6738 279.4598 13.13469851250061
ONEWEB-0157             
1 48055U 21025P   26141.03448066  .00000278  00000+0  72685-3 0  9994
2 48055  87.8949 325.6309 0001566 101.5824 258.5482 13.13468732250005
ONEWEB-0162             
1 48056U 21025Q   26141.23916270 -.00000344  00000+0 -97602-3 0  9996
2 48056  87.8944 325.5920 0001921  94.8754 265.2595 13.13468747250006
ONEWEB-0155             
1 48057U 21025R   26141.24607068 -.00000299  00000+0 -85304-3 0  9995
2 48057  87.8942 325.5867 0001600  91.3305 268.8008 13.13469990250147
ONEWEB-0149             
1 48058U 21025S   26141.03956164  .00000270  00000+0  70541-3 0  9991
2 48058  87.8950 325.6303 0001953  95.9941 264.1410 13.13470970249920
ONEWEB-0148             
1 48059U 21025T   26141.23083683 -.00000302  00000+0 -86147-3 0  9998
2 48059  87.8943 325.6008 0002151 104.8983 255.2384 13.13468643250075
ONEWEB-0160             
1 48060U 21025U   26141.24778130 -.00000107  00000+0 -32729-3 0  9999
2 48060  87.8941 325.5938 0002283  74.9663 285.1719 13.13471448250020
ONEWEB-0163             
1 48061U 21025V   26141.23253797 -.00000369  00000+0 -10465-2 0  9998
2 48061  87.8943 325.5898 0001575  97.8564 262.2744 13.13468741250144
